OBJECT_NAME,OBJECT_ID,EPOCH,MEAN_MOTION,ECCENTRICITY,INCLINATION,RA_OF_ASC_NODE,ARG_OF_PERICENTER,MEAN_ANOMALY,EPHEMERIS_TYPE,CLASSIFICATION_TYPE,NORAD_CAT_ID,ELEMENT_SET_NO,REV_AT_EPOCH,BSTAR,MEAN_MOTION_DOT,MEAN_MOTION_DDOT
STARLINK-38067,2026-150J,2026-07-18T12:31:14.098080,15.75265955,.00013728,97.2837,38.0285,114.2311,245.9098,0,U,69747,999,384,.1386313E-2,.212574E-2,0
STARLINK-37988,2026-150K,2026-07-18T12:28:41.667744,15.75197343,.0001252,97.2841,38.0306,92.2959,267.8449,0,U,69748,999,384,.85655645E-3,.129628E-2,0
STARLINK-37987,2026-150L,2026-07-18T12:22:35.767200,15.75249507,.0001104,97.2846,38.0370,110.4056,249.7328,0,U,69749,999,384,.1150507E-2,.175498E-2,0
STARLINK-38037,2026-150M,2026-07-18T11:46:36.159456,15.80910604,.00010922,97.2854,38.0728,85.8663,274.2730,0,U,69750,999,384,.1216286E-2,.240405E-2,0
STARLINK-38049,2026-150N,2026-07-18T11:45:06.258528,15.80932844,.00009488,97.2857,38.0737,93.2446,266.8931,0,U,69751,999,384,.71538347E-3,.139848E-2,0
STARLINK-38029,2026-150P,2026-07-18T11:58:42.648672,15.75249895,.00015858,97.2851,38.0612,111.7934,248.3500,0,U,69752,999,384,.99608327E-3,.1515E-2,0
STARLINK-37965,2026-150Q,2026-07-18T19:45:46.143936,15.75214724,.0001715,97.2841,38.3841,95.7571,264.3890,0,U,69753,999,389,.1149E-2,.175003E-2,0
STARLINK-38048,2026-150R,2026-07-18T11:36:19.129536,15.80886628,.00014114,97.2842,38.0819,93.6026,266.5404,0,U,69754,999,384,.8802076E-3,.172387E-2,0
STARLINK-38006,2026-150S,2026-07-18T19:32:33.213120,15.75214657,.0001279,97.2848,38.3977,99.3155,260.8255,0,U,69755,999,389,.81316E-3,.123051E-2,0
STARLINK-38036,2026-150T,2026-07-18T20:00:01.999008,15.75252366,.0001113,97.2855,38.4356,88.2900,57.9795,0,U,69756,999,388,-.12134E-2,-.177871E-2,0
STARLINK-38058,2026-150U,2026-07-18T20:00:01.999008,15.75551747,.0001456,97.2851,38.4591,100.0093,104.0877,0,U,69757,999,388,-.4412E-2,-.622206E-2,0
STARLINK-38066,2026-150V,2026-07-18T20:00:01.999008,15.80748363,.0001792,97.2847,38.4637,101.8147,113.2435,0,U,69758,999,388,-.11471E-1,-.1913002E-1,0
STARLINK-38035,2026-150W,2026-07-16T12:23:54.049920,15.80943955,.0001208,97.2826,36.0135,127.8766,232.2612,0,U,69759,999,353,.16439E-2,.328828E-2,0
STARLINK-38056,2026-150X,2026-07-18T12:55:50.465856,15.80944146,.00013575,97.2841,38.1609,127.6986,232.4406,0,U,69760,999,385,.15196412E-2,.303051E-2,0
STARLINK-38069,2026-150Y,2026-07-18T20:00:01.999008,15.75194960,.0000842,97.2856,38.4748,80.5901,159.6785,0,U,69761,999,388,-.3955E-3,-.58727E-3,0
STARLINK-38019,2026-150Z,2026-07-18T19:31:32.429856,15.75199274,.0000829,97.2841,38.3987,75.6411,284.4946,0,U,69762,999,389,.72131E-3,.108882E-2,0
KUIPER-00258,2026-151A,2026-07-18T09:24:29.521440,15.34753877,.0011375,51.8670,165.1525,179.1617,180.9389,0,U,69763,999,250,.10179759E-3,.3104E-4,0
KUIPER-00526,2026-151B,2026-07-18T21:25:02.280864,15.37377542,.0006341,51.8764,162.5164,150.6832,209.4512,0,U,69764,999,258,.41909E-3,.15242E-3,0
KUIPER-00558,2026-151C,2026-07-18T20:00:01.999008,15.33842795,.0006992,51.8783,162.9132,167.5006,169.3699,0,U,69765,999,318,-.32253E-1,-.991246E-2,0
KUIPER-00569,2026-151D,2026-07-18T20:00:01.999008,15.37501060,.0005146,51.8798,162.7805,149.7461,253.6972,0,U,69766,999,167,.13124E-2,.48975E-3,0
KUIPER-00589,2026-151E,2026-07-18T21:23:46.142592,15.37402076,.0005347,51.8760,162.5118,151.9506,208.1769,0,U,69767,999,258,.36637E-3,.1328E-3,0
KUIPER-00598,2026-151F,2026-07-18T20:00:01.999008,15.34350414,.0008703,51.8643,163.0253,175.1587,102.8317,0,U,69768,999,311,.11698E-2,.3937E-3,0
KUIPER-00604,2026-151G,2026-07-18T14:56:32.333280,15.38292222,.000268,51.8808,163.7088,116.3646,243.7617,0,U,69769,999,254,.31309E-3,.11626E-3,0
KUIPER-00609,2026-151H,2026-07-18T21:04:19.593984,15.38692460,.0001332,51.8806,162.4218,60.2927,299.8193,0,U,69770,999,258,.33224E-3,.12528E-3,0
KUIPER-00611,2026-151J,2026-07-18T14:53:17.231712,15.38499762,.0001637,51.8813,163.6900,109.7569,250.3595,0,U,69771,999,254,.22095E-3,.8141E-4,0
KUIPER-00612,2026-151K,2026-07-18T10:20:22.454880,15.37989792,.00037339,51.8802,164.6733,127.3519,232.7808,0,U,69772,999,251,.302671E-3,.11113E-3,0
KUIPER-00614,2026-151L,2026-07-18T21:12:05.348736,15.38205735,.000261,51.8811,162.4560,130.2273,229.8943,0,U,69773,999,258,.29792E-3,.11011E-3,0
KUIPER-00615,2026-151M,2026-07-18T15:11:59.678304,15.37279796,.0005889,51.8783,163.7806,159.4148,200.7077,0,U,69774,999,254,.33422E-3,.1203E-3,0
KUIPER-00616,2026-151N,2026-07-18T07:07:26.640768,15.38429645,.00029597,51.8793,165.2779,134.0384,226.0848,0,U,69775,999,249,.58719962E-3,.22283E-3,0
KUIPER-00617,2026-151P,2026-07-18T15:03:09.044928,15.37833061,.0003924,51.8805,163.7393,145.0912,215.0333,0,U,69776,999,254,.23646E-3,.8548E-4,0
